AMC-6 (GE-6)            
1 26580U 00067A   17146.59984459 -.00000254  00000-0  00000-0 0  9998
2 26580   0.0658 286.8843 0000682  27.0632  76.5314  1.00019053 60806
INTELSAT 12 (IS-12)     
1 26590U 00068A   17146.86544528  .00000126  00000-0  00000-0 0  9996
2 26590   0.4407  93.3080 0001875   7.4293 140.4176  1.00271244 18540
INTELSAT 1R (IS-1R)     
1 26608U 00072A   17146.56751508  .00000004  00000-0  00000-0 0  9991
2 26608   0.2712  91.5010 0001460   8.6651 168.0189  1.00069280  8141
ANIK F1                 
1 26624U 00076A   17146.61932165 -.00000083  00000-0  00000-0 0  9997
2 26624   0.0084 284.3552 0001913 172.3989 263.2676  1.00268103  9952
ASTRA 2D                
1 26638U 00081A   17146.34992661  .00000038  00000-0  00000-0 0  9994
2 26638   3.6099  70.1461 0001580 358.8281   0.8053  1.00273978 19735
AMC-8 (GE-8)            
1 26639U 00081B   17146.51160384  .00000094  00000-0  00000-0 0  9995
2 26639   0.0440  68.7493 0003339   2.1845 218.5201  1.00274920 60090
SKYNET 4F               
1 26695U 01005B   17146.00743307 -.00000258  00000-0  00000-0 0  9993
2 26695   8.8749  36.7991 0002350  13.1310 162.5108  1.00269351 59699
EUTELSAT 33C            
1 26719U 01011A   17146.82615635  .00000145  00000-0  00000-0 0  9993
2 26719   0.0773  33.5435 0004076  17.5455 163.9908  1.00273221 59379
INTELSAT 10 (IS-10)     
1 26766U 01019A   17146.86021566  .00000115  00000-0  00000-0 0  9998
2 26766   1.4741  85.2751 0002269 318.0125 198.5038  1.00273643 12466
INTELSAT 901 (IS-901)   
1 26824U 01024A   17146.49073676 -.00000150  00000-0  00000-0 0  9997
2 26824   0.0293  61.7045 0002581 357.5189 343.6880  1.00272084 58510
ASTRA 2C                
1 26853U 01025A   17146.84823663  .00000036  00000-0  00000-0 0  9990
2 26853   0.3557  91.2940 0003029 327.1171 191.8375  1.00269761 58400
ARTEMIS                 
1 26863U 01029A   17145.83793851 -.00000379  00000-0  00000-0 0  9999
2 26863  12.7097  33.2984 0001970  64.2216 210.6726  1.00267462 10968
INTELSAT 902 (IS-902)   
1 26900U 01039A   17146.89771424  .00000022  00000-0  00000-0 0  9995
2 26900   0.0162  21.8455 0002674  45.8447 202.1259  1.00271016 57544
EUTELSAT 12 WEST B      
1 26927U 01042A   17146.86394354 -.00000111  00000-0  00000-0 0  9998
2 26927   0.0555  35.4790 0005399  17.8402 129.8169  1.00270596 57344
DIRECTV 4S              
1 26985U 01052A   17146.61139656 -.00000123  00000-0  00000-0 0  9991
2 26985   0.0182 332.5561 0001626  90.7869 299.9339  1.00269612 18147
INSAT-3C                
1 27298U 02002A   17146.78034275 -.00000268  00000-0  00000-0 0  9994
2 27298   0.5802  91.6150 0003048 228.4970 298.8376  1.00269403 56238
ECHOSTAR 7              
1 27378U 02006A   17146.50696405 -.00000010  00000-0  00000-0 0  9991
2 27378   0.0120 328.4458 0001366 107.7117 231.8184  1.00271914 17477
INTELSAT 904 (IS-904)   
1 27380U 02007A   17146.14618615  .00000127  00000-0  00000-0 0  9990
2 27380   0.0613 114.4345 0002498 307.9600 279.2397  1.00271682 18580
TDRS 9                  
1 27389U 02011A   17146.86395118 -.00000111  00000-0  00000-0 0  9997
2 27389   5.2073  79.3358 0018594 253.3160 210.8742  1.00272925 57273
JCSAT 2A                
1 27399U 02015A   17146.82108169 -.00000317  00000-0  00000-0 0  9994
2 27399   0.4348  92.8224 0000132  91.4594 131.9509  1.00271676 55723
ASTRA 3A                
1 27400U 02015B   17144.64749635 -.00000285  00000-0  00000-0 0  9998
2 27400   3.7710  68.8876 0002374   1.3592 358.3218  1.00270183 55532
INTELSAT 903 (IS-903)   
1 27403U 02016A   17146.42688017 -.00000247  00000-0  00000-0 0  9994
2 27403   0.0132 323.2562 0002761  97.4828 302.6208  1.00271854 55471
NSS-7                   
1 27414U 02019A   17146.60597234 -.00000166  00000-0  00000-0 0  9999
2 27414   1.8515  83.1540 0002552 348.4264  10.9343  1.00271734 55393
DIRECTV 5 (TEMPO 1)     
1 27426U 02023A   17145.62988574 -.00000063  00000-0  00000-0 0  9995
2 27426   0.0210 321.1096 0003129 106.3370 292.5865  1.00270882 55121
INTELSAT 905 (IS-905)   
1 27438U 02027A   17146.86366149 -.00000195  00000-0  00000-0 0  9993
2 27438   0.0162 294.9295 0002786 103.6448 132.4590  1.00270058 18202
EXPRESS-A4              
1 27441U 02029A   17146.64399769 -.00000257  00000-0  00000-0 0  9998
2 27441   6.0264  56.6401 0003718  46.8535 158.1863  1.00270529 54793
GALAXY 3C (G-3C)        
1 27445U 02030A   17145.58802307 -.00000158  00000-0  00000-0 0  9993
2 27445   0.0170 307.1432 0002109  28.0642  24.7914  1.00269161 13395
EUTELSAT 5 WEST A       
1 27460U 02035A   17146.33596479 -.00000051  00000-0  00000-0 0  9991
2 27460   0.0431 350.2822 0004906  69.1221 300.6511  1.00271333 54455
N-STAR C                
1 27461U 02035B   17146.71908510 -.00000321  00000-0  00000-0 0  9997
2 27461   4.5934  64.9147 0004567 342.2751 232.1544  1.00273753 54552
EUTELSAT 36 WEST A      
1 27508U 02040A   17146.42176292 -.00000254  00000-0  00000-0 0  9992
2 27508   0.0666 356.2866 0005525  42.5526 321.2074  1.00272269 54073
METEOSAT-8 (MSG-1)      
1 27509U 02040B   17146.86534618  .00000129  00000-0  00000-0 0  9991
2 27509   4.8061  58.4332 0000727 271.7780 267.2675  1.00276150 54081
INTELSAT 906 (IS-906)   
1 27513U 02041A   17146.86597889  .00000004  00000-0  00000-0 0  9998
2 27513   0.0209 293.2153 0002594 140.4555 186.8339  1.00271000 53861
KODAMA (DRTS)           
1 27516U 02042B   17146.91782153 -.00000251  00000-0  00000-0 0  9993
2 27516   5.0057  62.1895 0003059   2.5953 241.0358  1.00270936 12736
KALPANA-1 (METSAT 1)    
1 27525U 02043A   17146.27098474 -.00000090  00000-0  00000-0 0  9990
2 27525   6.3157  55.3775 0012725 235.9886 123.6832  1.00274407 53889
HISPASAT 1D             
1 27528U 02044A   17146.85289347 -.00000227  00000-0  00000-0 0  9991
2 27528   0.0247 345.6767 0004027  59.0188 116.9620  1.00271122  9641
TDRS 10                 
1 27566U 02055A   17145.96867620  .00000070  00000-0  00000-0 0  9997
2 27566   4.9982  58.5115 0007846 251.5616 108.0876  1.00266302 53059
NSS-6                   
1 27603U 02057A   17146.88010514 -.00000280  00000-0  00000-0 0  9999
2 27603   0.0448 102.5342 0000801 313.9836 239.9450  1.00269751 52926
NIMIQ 2                 
1 27632U 02062A   17145.72503299 -.00000288  00000-0  00000-0 0  9994
2 27632   1.9524  82.1180 0002396 239.8415 119.5626  1.00272557 52685
INTELSAT 907 (IS-907)   
1 27683U 03007A   17146.39823634 -.00000212  00000-0  00000-0 0  9999
2 27683   0.0189 302.0145 0002489 114.2484 303.7608  1.00270504 52270
GALAXY 12 (G-12)        
1 27715U 03013B   17146.61510086  .00000049  00000-0  00000-0 0  9998
2 27715   0.0471 115.5146 0001546 303.4197 277.8685  1.00270115 51828
ASIASAT 4               
1 27718U 03014A   17146.26792031 -.00000369  00000-0  00000-0 0  9991
2 27718   0.0530 112.2526 0000321  20.0536 330.2425  1.00267709 51744
HELLAS-SAT 2            
1 27811U 03020A   17146.82615635  .00000141  00000-0  00000-0 0  9995
2 27811   0.0391  94.7522 0004047 326.5333 159.6763  1.00271674  9681
AMC-9 (GE-12)           
1 27820U 03024A   17146.36752185 -.00000225  00000-0  00000-0 0  9994
2 27820   0.0133 345.4795 0002924  86.6253 221.3285  1.00271176 51208
THURAYA-2               
1 27825U 03026A   17146.77129341  .00000119  00000-0  00000-0 0  9999
2 27825   4.9003  29.0500 0004317  26.3759 150.7460  1.00272214 51171
OPTUS C1                
1 27831U 03028B   17146.74513663 -.00000158  00000-0  00000-0 0  9993
2 27831   0.0410 191.5686 0002792 255.1489 222.0316  1.00270823 51148
ECHOSTAR 12 (RAINBOW 1) 
1 27852U 03033A   17146.43660753 -.00000292  00000-0  00000-0 0  9990
2 27852   0.0178  23.2125 0001336  76.0199 240.9458  1.00272880 50805
GALAXY 23 (G-23)        
1 27854U 03034A   17146.59281668  .00000003  00000-0  00000-0 0  9993
2 27854   0.0204 303.5270 0003168 121.3202 271.9298  1.00272156 55364
EUTELSAT 33A            
1 27948U 03043A   17146.95025756  .00000141  00000-0  00000-0 0  9994
2 27948   2.3312  78.3925 0002456 232.3049 306.9357  1.00271657 12305
GALAXY 13 (HORIZONS-1)  
1 27954U 03044A   17146.48497336  .00000038  00000-0  00000-0 0  9992
2 27954   0.0576 101.8942 0001595 356.7126 193.2221  1.00272914 49988
ZHONGXING-20            
1 28082U 03052A   17146.52141248 -.00000335  00000-0  00000-0 0  9998
2 28082   3.4646  71.3976 0003672 323.9602 139.8365  1.00268114 49585
YAMAL 202               
1 28089U 03053A   17146.86555962  .00000109  00000-0  00000-0 0  9993
2 28089   0.0551 112.2943 0003298 296.3540 196.5231  1.00270800 49506
EXPRESS-AM22 (SESAT 2)  
1 28134U 03060A   17146.91782153 -.00000148  00000-0  00000-0 0  9996
2 28134   0.4077  91.1915 0000257  78.2623 125.7323  1.00271610 49101
AMC-10 (GE-10)          
1 28154U 04003A   17146.67896775  .00000078  00000-0  00000-0 0  9996
2 28154   0.0102 349.7627 0002474  84.7655 279.3327  1.00272835 48761
ABS-4 (MOBISAT-1)       
1 28184U 04007A   17146.58553869  .00000031  00000-0  00000-0 0  9996
2 28184   0.0197 304.9296 0001848 123.7932  87.3880  1.00272086 48409
EUTELSAT 7A             
1 28187U 04008A   17146.86442380  .00000037  00000-0  00000-0 0  9992
2 28187   0.0662 354.7446 0003626  95.0824 112.9585  1.00270762 48211
DIRECTV 7S              
1 28238U 04016A   17146.50696193 -.00000008  00000-0  00000-0 0  9991
2 28238   0.0216  19.9438 0002736  42.6792 245.0874  1.00271192 47897
AMC-11 (GE-11)          
1 28252U 04017A   17146.67737462  .00000059  00000-0  00000-0 0  9996
2 28252   0.0311  38.6667 0002393  29.1561 289.4540  1.00271652 47763
INTELSAT 10-02          
1 28358U 04022A   17146.09192847 -.00000020  00000-0  00000-0 0  9996
2 28358   0.0082 328.3263 0000631 341.8704 325.7628  1.00268518 47445
APSTAR 5 (TELSTAR 18)   
1 28364U 04024A   17146.78726510 -.00000305  00000-0  00000-0 0  9997
2 28364   0.0109  55.4588 0002994  14.1487 236.3573  1.00271769 47372
